[{"OBJECT_NAME":"ION SCV-013","OBJECT_ID":"2023-174AW","EPOCH":"2026-03-09T22:59:29.755392","MEAN_MOTION":15.04632564,"ECCENTRICITY":0.00998876,"INCLINATION":97.6297,"RA_OF_ASC_NODE":125.3193,"ARG_OF_PERICENTER":172.5348,"MEAN_ANOMALY":187.7394,"EPHEMERIS_TYPE":0,"CLASSIFICATION_TYPE":"U","NORAD_CAT_ID":58300,"ELEMENT_SET_NO":999,"REV_AT_EPOCH":12661,"BSTAR":0.00023880169,"MEAN_MOTION_DOT":3.68e-5,"MEAN_MOTION_DDOT":0},{"OBJECT_NAME":"ESSAIM-2","OBJECT_ID":"2004-049D","EPOCH":"2026-03-09T16:31:14.932128","MEAN_MOTION":14.90708375,"ECCENTRICITY":0.00027435,"INCLINATION":98.2348,"RA_OF_ASC_NODE":331.5061,"ARG_OF_PERICENTER":81.1628,"MEAN_ANOMALY":278.99,"EPHEMERIS_TYPE":0,"CLASSIFICATION_TYPE":"U","NORAD_CAT_ID":28495,"ELEMENT_SET_NO":999,"REV_AT_EPOCH":14571,"BSTAR":0.0002608689,"MEAN_MOTION_DOT":2.499e-5,"MEAN_MOTION_DDOT":0}]
